[{"OBJECT_NAME":"STARLINK-1513","OBJECT_ID":"2020-038BJ","EPOCH":"2025-07-29T04:36:59.170464","MEAN_MOTION":15.06409841,"ECCENTRICITY":0.0001443,"INCLINATION":53.0548,"RA_OF_ASC_NODE":119.9355,"ARG_OF_PERICENTER":100.8765,"MEAN_ANOMALY":259.2386,"EPHEMERIS_TYPE":0,"CLASSIFICATION_TYPE":"U","NORAD_CAT_ID":45786,"ELEMENT_SET_NO":999,"REV_AT_EPOCH":28399,"BSTAR":6.1116e-5,"MEAN_MOTION_DOT":6.29e-6,"MEAN_MOTION_DDOT":0},{"OBJECT_NAME":"STARLINK-1522","OBJECT_ID":"2020-055A","EPOCH":"2025-07-28T20:11:25.469664","MEAN_MOTION":15.06408862,"ECCENTRICITY":0.0001528,"INCLINATION":53.0547,"RA_OF_ASC_NODE":51.5131,"ARG_OF_PERICENTER":87.4453,"MEAN_ANOMALY":272.6711,"EPHEMERIS_TYPE":0,"CLASSIFICATION_TYPE":"U","NORAD_CAT_ID":46027,"ELEMENT_SET_NO":999,"REV_AT_EPOCH":27463,"BSTAR":0.00026649,"MEAN_MOTION_DOT":3.691e-5,"MEAN_MOTION_DDOT":0},{"OBJECT_NAME":"STARLINK-1523","OBJECT_ID":"2020-055B","EPOCH":"2025-07-28T20:32:39.198336","MEAN_MOTION":15.06406832,"ECCENTRICITY":0.0001458,"INCLINATION":53.0548,"RA_OF_ASC_NODE":51.4457,"ARG_OF_PERICENTER":88.8916,"MEAN_ANOMALY":271.224,"EPHEMERIS_TYPE":0,"CLASSIFICATION_TYPE":"U","NORAD_CAT_ID":46028,"ELEMENT_SET_NO":999,"REV_AT_EPOCH":27464,"BSTAR":0.00024871,"MEAN_MOTION_DOT":3.426e-5,"MEAN_MOTION_DDOT":0},{"OBJECT_NAME":"STARLINK-1526","OBJECT_ID":"2020-055C","EPOCH":"2025-07-28T20:22:02.168544","MEAN_MOTION":15.06408016,"ECCENTRICITY":0.0001502,"INCLINATION":53.0545,"RA_OF_ASC_NODE":51.4763,"ARG_OF_PERICENTER":89.2581,"MEAN_ANOMALY":270.858,"EPHEMERIS_TYPE":0,"CLASSIFICATION_TYPE":"U","NORAD_CAT_ID":46029,"ELEMENT_SET_NO":999,"REV_AT_EPOCH":27464,"BSTAR":0.00020408,"MEAN_MOTION_DOT":2.76e-5,"MEAN_MOTION_DDOT":0},{"OBJECT_NAME":"STARLINK-1555","OBJECT_ID":"2020-055F","EPOCH":"2025-07-28T07:16:30.137376","MEAN_MOTION":15.06401217,"ECCENTRICITY":0.0001334,"INCLINATION":53.0544,"RA_OF_ASC_NODE":53.933,"ARG_OF_PERICENTER":84.012,"MEAN_ANOMALY":276.1021,"EPHEMERIS_TYPE":0,"CLASSIFICATION_TYPE":"U","NORAD_CAT_ID":46032,"ELEMENT_SET_NO":999,"REV_AT_EPOCH":27507,"BSTAR":0.00032407,"MEAN_MOTION_DOT":4.549e-5,"MEAN_MOTION_DDOT":0},{"OBJECT_NAME":"STARLINK-1556","OBJECT_ID":"2020-055G","EPOCH":"2025-07-28T19:34:17.605920","MEAN_MOTION":15.06394953,"ECCENTRICITY":0.0001098,"INCLINATION":53.0553,"RA_OF_ASC_NODE":51.6288,"ARG_OF_PERICENTER":79.1934,"MEAN_ANOMALY":280.9178,"EPHEMERIS_TYPE":0,"CLASSIFICATION_TYPE":"U","NORAD_CAT_ID":46033,"ELEMENT_SET_NO":999,"REV_AT_EPOCH":27463,"BSTAR":0.00016519,"MEAN_MOTION_DOT":2.18e-5,"MEAN_MOTION_DDOT":0},{"OBJECT_NAME":"STARLINK-1557","OBJECT_ID":"2020-055H","EPOCH":"2025-07-28T22:50:39.626592","MEAN_MOTION":15.0640552,"ECCENTRICITY":0.0001248,"INCLINATION":53.0549,"RA_OF_ASC_NODE":51.0159,"ARG_OF_PERICENTER":92.8513,"MEAN_ANOMALY":267.2619,"EPHEMERIS_TYPE":0,"CLASSIFICATION_TYPE":"U","NORAD_CAT_ID":46034,"ELEMENT_SET_NO":999,"REV_AT_EPOCH":27465,"BSTAR":0.00021716,"MEAN_MOTION_DOT":2.955e-5,"MEAN_MOTION_DDOT":0},{"OBJECT_NAME":"STARLINK-1558","OBJECT_ID":"2020-055J","EPOCH":"2025-07-28T19:50:11.728896","MEAN_MOTION":15.06403218,"ECCENTRICITY":0.0001337,"INCLINATION":53.0552,"RA_OF_ASC_NODE":51.5768,"ARG_OF_PERICENTER":87.5297,"MEAN_ANOMALY":272.5845,"EPHEMERIS_TYPE":0,"CLASSIFICATION_TYPE":"U","NORAD_CAT_ID":46035,"ELEMENT_SET_NO":999,"REV_AT_EPOCH":27463,"BSTAR":0.00023723,"MEAN_MOTION_DOT":3.254e-5,"MEAN_MOTION_DDOT":0},{"OBJECT_NAME":"STARLINK-1560","OBJECT_ID":"2020-055K","EPOCH":"2025-07-28T21:04:30.301536","MEAN_MOTION":15.06402553,"ECCENTRICITY":0.0001221,"INCLINATION":53.055,"RA_OF_ASC_NODE":51.3461,"ARG_OF_PERICENTER":93.7731,"MEAN_ANOMALY":266.3398,"EPHEMERIS_TYPE":0,"CLASSIFICATION_TYPE":"U","NORAD_CAT_ID":46036,"ELEMENT_SET_NO":999,"REV_AT_EPOCH":27464,"BSTAR":0.00014974,"MEAN_MOTION_DOT":1.95e-5,"MEAN_MOTION_DDOT":0},{"OBJECT_NAME":"STARLINK-1567","OBJECT_ID":"2020-055M","EPOCH":"2025-07-28T19:44:53.119392","MEAN_MOTION":15.06400054,"ECCENTRICITY":0.0001207,"INCLINATION":53.0549,"RA_OF_ASC_NODE":51.5946,"ARG_OF_PERICENTER":84.8017,"MEAN_ANOMALY":275.3109,"EPHEMERIS_TYPE":0,"CLASSIFICATION_TYPE":"U","NORAD_CAT_ID":46038,"ELEMENT_SET_NO":999,"REV_AT_EPOCH":27463,"BSTAR":0.00014769,"MEAN_MOTION_DOT":1.919e-5,"MEAN_MOTION_DDOT":0},{"OBJECT_NAME":"STARLINK-1569","OBJECT_ID":"2020-055N","EPOCH":"2025-07-28T19:55:30.154368","MEAN_MOTION":15.06402749,"ECCENTRICITY":0.0001316,"INCLINATION":53.0555,"RA_OF_ASC_NODE":51.5633,"ARG_OF_PERICENTER":109.5795,"MEAN_ANOMALY":250.5336,"EPHEMERIS_TYPE":0,"CLASSIFICATION_TYPE":"U","NORAD_CAT_ID":46039,"ELEMENT_SET_NO":999,"REV_AT_EPOCH":27463,"BSTAR":5.7045e-5,"MEAN_MOTION_DOT":5.68e-6,"MEAN_MOTION_DDOT":0},{"OBJECT_NAME":"STARLINK-1582","OBJECT_ID":"2020-055S","EPOCH":"2025-07-28T07:21:48.580992","MEAN_MOTION":15.06407052,"ECCENTRICITY":0.0001455,"INCLINATION":53.0549,"RA_OF_ASC_NODE":53.9137,"ARG_OF_PERICENTER":87.0861,"MEAN_ANOMALY":273.0294,"EPHEMERIS_TYPE":0,"CLASSIFICATION_TYPE":"U","NORAD_CAT_ID":46043,"ELEMENT_SET_NO":999,"REV_AT_EPOCH":27506,"BSTAR":6.0733e-5,"MEAN_MOTION_DOT":6.23e-6,"MEAN_MOTION_DDOT":0},{"OBJECT_NAME":"STARLINK-1591","OBJECT_ID":"2020-055U","EPOCH":"2025-07-28T14:21:06.587424","MEAN_MOTION":15.06406723,"ECCENTRICITY":0.0001306,"INCLINATION":53.0551,"RA_OF_ASC_NODE":52.603,"ARG_OF_PERICENTER":93.1855,"MEAN_ANOMALY":266.9283,"EPHEMERIS_TYPE":0,"CLASSIFICATION_TYPE":"U","NORAD_CAT_ID":46045,"ELEMENT_SET_NO":999,"REV_AT_EPOCH":27509,"BSTAR":5.143e-5,"MEAN_MOTION_DOT":4.85e-6,"MEAN_MOTION_DDOT":0},{"OBJECT_NAME":"STARLINK-1524","OBJECT_ID":"2020-055W","EPOCH":"2025-07-28T18:00:03.328128","MEAN_MOTION":15.06411351,"ECCENTRICITY":0.0001385,"INCLINATION":53.0556,"RA_OF_ASC_NODE":41.9251,"ARG_OF_PERICENTER":92.1711,"MEAN_ANOMALY":267.9436,"EPHEMERIS_TYPE":0,"CLASSIFICATION_TYPE":"U","NORAD_CAT_ID":46047,"ELEMENT_SET_NO":999,"REV_AT_EPOCH":27476,"BSTAR":5.5098e-5,"MEAN_MOTION_DOT":5.4e-6,"MEAN_MOTION_DDOT":0},{"OBJECT_NAME":"STARLINK-1527","OBJECT_ID":"2020-055X","EPOCH":"2025-07-28T19:30:17.705088","MEAN_MOTION":15.06403007,"ECCENTRICITY":0.0001307,"INCLINATION":53.0546,"RA_OF_ASC_NODE":41.6418,"ARG_OF_PERICENTER":88.598,"MEAN_ANOMALY":271.5159,"EPHEMERIS_TYPE":0,"CLASSIFICATION_TYPE":"U","NORAD_CAT_ID":46048,"ELEMENT_SET_NO":999,"REV_AT_EPOCH":27477,"BSTAR":0.0002249,"MEAN_MOTION_DOT":3.07e-5,"MEAN_MOTION_DDOT":0},{"OBJECT_NAME":"STARLINK-1540","OBJECT_ID":"2020-055AA","EPOCH":"2025-07-28T20:18:03.922272","MEAN_MOTION":15.0640239,"ECCENTRICITY":0.0001342,"INCLINATION":53.0561,"RA_OF_ASC_NODE":41.4909,"ARG_OF_PERICENTER":92.8326,"MEAN_ANOMALY":267.2817,"EPHEMERIS_TYPE":0,"CLASSIFICATION_TYPE":"U","NORAD_CAT_ID":46051,"ELEMENT_SET_NO":999,"REV_AT_EPOCH":27478,"BSTAR":0.00010672,"MEAN_MOTION_DOT":1.309e-5,"MEAN_MOTION_DDOT":0},{"OBJECT_NAME":"STARLINK-1541","OBJECT_ID":"2020-055AB","EPOCH":"2025-07-28T19:56:48.950304","MEAN_MOTION":15.0639984,"ECCENTRICITY":0.0001393,"INCLINATION":53.0553,"RA_OF_ASC_NODE":41.5565,"ARG_OF_PERICENTER":96.8118,"MEAN_ANOMALY":263.303,"EPHEMERIS_TYPE":0,"CLASSIFICATION_TYPE":"U","NORAD_CAT_ID":46052,"ELEMENT_SET_NO":999,"REV_AT_EPOCH":27477,"BSTAR":-0.00013014,"MEAN_MOTION_DOT":-2.219e-5,"MEAN_MOTION_DDOT":0}]
