STARLINK-1513           
1 45786U 20038BJ  25210.19235151  .00000629  00000+0  61116-4 0  9995
2 45786  53.0548 119.9355 0001443 100.8765 259.2386 15.06409841283993
STARLINK-1522           
1 46027U 20055A   25209.84126701  .00003691  00000+0  26649-3 0  9996
2 46027  53.0547  51.5131 0001528  87.4453 272.6711 15.06408862274636
STARLINK-1523           
1 46028U 20055B   25209.85600924  .00003426  00000+0  24871-3 0  9993
2 46028  53.0548  51.4457 0001458  88.8916 271.2240 15.06406832274647
STARLINK-1526           
1 46029U 20055C   25209.84863621  .00002760  00000+0  20408-3 0  9990
2 46029  53.0545  51.4763 0001502  89.2581 270.8580 15.06408016274646
STARLINK-1555           
1 46032U 20055F   25209.30312659  .00004549  00000+0  32407-3 0  9994
2 46032  53.0544  53.9330 0001334  84.0120 276.1021 15.06401217275074
STARLINK-1556           
1 46033U 20055G   25209.81548155  .00002180  00000+0  16519-3 0  9998
2 46033  53.0553  51.6288 0001098  79.1934 280.9178 15.06394953274632
STARLINK-1557           
1 46034U 20055H   25209.95184753  .00002955  00000+0  21716-3 0  9999
2 46034  53.0549  51.0159 0001248  92.8513 267.2619 15.06405520274654
STARLINK-1558           
1 46035U 20055J   25209.82652464  .00003254  00000+0  23723-3 0  9998
2 46035  53.0552  51.5768 0001337  87.5297 272.5845 15.06403218274639
STARLINK-1560           
1 46036U 20055K   25209.87812849  .00001950  00000+0  14974-3 0  9998
2 46036  53.0550  51.3461 0001221  93.7731 266.3398 15.06402553274646
STARLINK-1567           
1 46038U 20055M   25209.82283703  .00001919  00000+0  14769-3 0  9993
2 46038  53.0549  51.5946 0001207  84.8017 275.3109 15.06400054274631
STARLINK-1569           
1 46039U 20055N   25209.83021012  .00000568  00000+0  57045-4 0  9992
2 46039  53.0555  51.5633 0001316 109.5795 250.5336 15.06402749274631
STARLINK-1582           
1 46043U 20055S   25209.30681228  .00000623  00000+0  60733-4 0  9990
2 46043  53.0549  53.9137 0001455  87.0861 273.0294 15.06407052275065
STARLINK-1591           
1 46045U 20055U   25209.59799291  .00000485  00000+0  51430-4 0  9993
2 46045  53.0551  52.6030 0001306  93.1855 266.9283 15.06406723275090
STARLINK-1524           
1 46047U 20055W   25209.75003852  .00000540  00000+0  55098-4 0  9990
2 46047  53.0556  41.9251 0001385  92.1711 267.9436 15.06411351274767
STARLINK-1527           
1 46048U 20055X   25209.81270492  .00003070  00000+0  22490-3 0  9994
2 46048  53.0546  41.6418 0001307  88.5980 271.5159 15.06403007274773
STARLINK-1540           
1 46051U 20055AA  25209.84587873  .00001309  00000+0  10672-3 0  9997
2 46051  53.0561  41.4909 0001342  92.8326 267.2817 15.06402390274786
STARLINK-1541           
1 46052U 20055AB  25209.83112211 -.00002219  00000+0 -13014-3 0  9993
2 46052  53.0553  41.5565 0001393  96.8118 263.3030 15.06399840274774
